{"type": "FeatureCollection", "features": [ {"type": "Feature", "properties": {"norad_id": 35701, "name": "COSMOS 2251 DEB", "group": "cosmos-2251-debris", "lat": -6.599506970908717, "lon": 125.87902280816147, "alt_km": 784.4126353190277, "timestamp": "2025-12-11T18:59:46.472003+00:00", "meta": {"OBJECT_NAME": "COSMOS 2251 DEB", "OBJECT_ID": "1993-036APW", "EPOCH": "2025-12-06T05:57:57.623904", "MEAN_MOTION": 13.80843435, "ECCENTRICITY": 0.02897209, "INCLINATION": 74.0028, "RA_OF_ASC_NODE": 313.2955, "ARG_OF_PERICENTER": 164.0681, "MEAN_ANOMALY": 196.98, "EPHEMERIS_TYPE": 0, "CLASSIFICATION_TYPE": "U", "NORAD_CAT_ID": 35701, "ELEMENT_SET_NO": 999, "REV_AT_EPOCH": 62069, "BSTAR": 0.0021223911, "MEAN_MOTION_DOT": 3.05e-05, "MEAN_MOTION_DDOT": 0}, "tle": {"line1": "1 35701U 93036APW 25340.24858361  .00003050  00000+0  21224-2 0  9998", "line2": "2 35701  74.0028 313.2955 0289720 164.0681 196.9800 13.80843435620696"}}, "geometry": {"type": "Point", "coordinates": [125.87902280816147, -6.599506970908717]}}, {"type": "Feature", "properties": {"norad_id": 35703, "name": "COSMOS 2251 DEB", "group": "cosmos-2251-debris", "lat": -9.802786981376178, "lon": -132.50031777759247, "alt_km": 588.7925696616194, "timestamp": "2025-12-11T18:59:46.472014+00:00", "meta": {"OBJECT_NAME": "COSMOS 2251 DEB", "OBJECT_ID": "1993-036APY", "EPOCH": "2025-12-08T11:12:28.770624", "MEAN_MOTION": 14.90258753, "ECCENTRICITY": 0.00649106, "INCLINATION": 74.042, "RA_OF_ASC_NODE": 51.3159, "ARG_OF_PERICENTER": 122.6243, "MEAN_ANOMALY": 238.1226, "EPHEMERIS_TYPE": 0, "CLASSIFICATION_TYPE": "U", "NORAD_CAT_ID": 35703, "ELEMENT_SET_NO": 999, "REV_AT_EPOCH": 66552, "BSTAR": 0.00096315421, "MEAN_MOTION_DOT": 9.705e-05, "MEAN_MOTION_DDOT": 0}, "tle": {"line1": "1 35703U 93036APY 25342.46699966  .00009705  00000+0  96315-3 0  9997", "line2": "2 35703  74.0420  51.3159 0064910 122.6243 238.1226 14.90258753665523"}}, "geometry": {"type": "Point", "coordinates": [-132.50031777759247, -9.802786981376178]}}, {"type": "Feature", "properties": {"norad_id": 35705, "name": "COSMOS 2251 DEB", "group": "cosmos-2251-debris", "lat": 30.607452473825962, "lon": 147.2344248009045, "alt_km": 639.9801001027618, "timestamp": "2025-12-11T18:59:46.472025+00:00", "meta": {"OBJECT_NAME": "COSMOS 2251 DEB", "OBJECT_ID": "1993-036AQA", "EPOCH": "2025-12-03T05:18:59.084352", "MEAN_MOTION": 14.71707631, "ECCENTRICITY": 0.0034156, "INCLINATION": 74.2742, "RA_OF_ASC_NODE": 154.0557, "ARG_OF_PERICENTER": 110.0272, "MEAN_ANOMALY": 250.4584, "EPHEMERIS_TYPE": 0, "CLASSIFICATION_TYPE": "U", "NORAD_CAT_ID": 35705, "ELEMENT_SET_NO": 999, "REV_AT_EPOCH": 85786, "BSTAR": 0.0035867, "MEAN_MOTION_DOT": 0.00022615, "MEAN_MOTION_DDOT": 0}, "tle": {"line1": "1 35705U 93036AQA 25337.22151718  .00022615  00000+0  35867-2 0  9994", "line2": "2 35705  74.2742 154.0557 0034156 110.0272 250.4584 14.71707631857866"}}, "geometry": {"type": "Point", "coordinates": [147.2344248009045, 30.607452473825962]}}, {"type": "Feature", "properties": {"norad_id": 35706, "name": "COSMOS 2251 DEB", "group": "cosmos-2251-debris", "lat": -59.51771782195082, "lon": 34.96915820843377, "alt_km": 1272.8976407716782, "timestamp": "2025-12-11T18:59:46.472036+00:00", "meta": {"OBJECT_NAME": "COSMOS 2251 DEB", "OBJECT_ID": "1993-036AQB", "EPOCH": "2025-12-10T13:26:36.115008", "MEAN_MOTION": 13.65916691, "ECCENTRICITY": 0.0340886, "INCLINATION": 73.8891, "RA_OF_ASC_NODE": 66.409, "ARG_OF_PERICENTER": 116.6304, "MEAN_ANOMALY": 247.0156, "EPHEMERIS_TYPE": 0, "CLASSIFICATION_TYPE": "U", "NORAD_CAT_ID": 35706, "ELEMENT_SET_NO": 999, "REV_AT_EPOCH": 62032, "BSTAR": 0.0013852, "MEAN_MOTION_DOT": 1.675e-05, "MEAN_MOTION_DDOT": 0}, "tle": {"line1": "1 35706U 93036AQB 25344.56014022  .00001675  00000+0  13852-2 0  9999", "line2": "2 35706  73.8891  66.4090 0340886 116.6304 247.0156 13.65916691620329"}}, "geometry": {"type": "Point", "coordinates": [34.96915820843377, -59.51771782195082]}}, {"type": "Feature", "properties": {"norad_id": 35711, "name": "COSMOS 2251 DEB", "group": "cosmos-2251-debris", "lat": 35.60604301516844, "lon": -125.90022278387838, "alt_km": 661.0276871146461, "timestamp": "2025-12-11T18:59:46.472046+00:00", "meta": {"OBJECT_NAME": "COSMOS 2251 DEB", "OBJECT_ID": "1993-036AQG", "EPOCH": "2025-12-10T23:08:43.048032", "MEAN_MOTION": 14.63792974, "ECCENTRICITY": 0.0085386, "INCLINATION": 74.0508, "RA_OF_ASC_NODE": 223.8689, "ARG_OF_PERICENTER": 325.2141, "MEAN_ANOMALY": 34.3461, "EPHEMERIS_TYPE": 0, "CLASSIFICATION_TYPE": "U", "NORAD_CAT_ID": 35711, "ELEMENT_SET_NO": 999, "REV_AT_EPOCH": 87745, "BSTAR": 0.00036043, "MEAN_MOTION_DOT": 1.949e-05, "MEAN_MOTION_DDOT": 0}, "tle": {"line1": "1 35711U 93036AQG 25344.96438713  .00001949  00000+0  36043-3 0  9998", "line2": "2 35711  74.0508 223.8689 0085386 325.2141  34.3461 14.63792974877453"}}, "geometry": {"type": "Point", "coordinates": [-125.90022278387838, 35.60604301516844]}}, {"type": "Feature", "properties": {"norad_id": 35716, "name": "COSMOS 2251 DEB", "group": "cosmos-2251-debris", "lat": 47.679861206236794, "lon": -2.359218880338173, "alt_km": 690.3987484827776, "timestamp": "2025-12-11T18:59:46.472057+00:00", "meta": {"OBJECT_NAME": "COSMOS 2251 DEB", "OBJECT_ID": "1993-036AQM", "EPOCH": "2025-12-10T22:58:34.278816", "MEAN_MOTION": 14.60083428, "ECCENTRICITY": 0.0088633, "INCLINATION": 73.9924, "RA_OF_ASC_NODE": 197.6138, "ARG_OF_PERICENTER": 39.0207, "MEAN_ANOMALY": 26.7611, "EPHEMERIS_TYPE": 0, "CLASSIFICATION_TYPE": "U", "NORAD_CAT_ID": 35716, "ELEMENT_SET_NO": 999, "REV_AT_EPOCH": 87601, "BSTAR": 0.00015815, "MEAN_MOTION_DOT": 7.71e-06, "MEAN_MOTION_DDOT": 0}, "tle": {"line1": "1 35716U 93036AQM 25344.95734119  .00000771  00000+0  15815-3 0  9997", "line2": "2 35716  73.9924 197.6138 0088633  39.0207  26.7611 14.60083428876013"}}, "geometry": {"type": "Point", "coordinates": [-2.359218880338173, 47.679861206236794]}}, {"type": "Feature", "properties": {"norad_id": 35717, "name": "COSMOS 2251 DEB", "group": "cosmos-2251-debris", "lat": -28.225467376772933, "lon": -149.53302965769592, "alt_km": 786.01517140345, "timestamp": "2025-12-11T18:59:46.472067+00:00", "meta": {"OBJECT_NAME": "COSMOS 2251 DEB", "OBJECT_ID": "1993-036AQN", "EPOCH": "2025-12-08T11:00:53.829504", "MEAN_MOTION": 14.38444389, "ECCENTRICITY": 0.00767393, "INCLINATION": 74.16, "RA_OF_ASC_NODE": 225.3267, "ARG_OF_PERICENTER": 86.192, "MEAN_ANOMALY": 274.8004, "EPHEMERIS_TYPE": 0, "CLASSIFICATION_TYPE": "U", "NORAD_CAT_ID": 35717, "ELEMENT_SET_NO": 999, "REV_AT_EPOCH": 74038, "BSTAR": 0.0017775827, "MEAN_MOTION_DOT": 5.593e-05, "MEAN_MOTION_DDOT": 0}, "tle": {"line1": "1 35717U 93036AQN 25342.45895636  .00005593  00000+0  17776-2 0  9997", "line2": "2 35717  74.1600 225.3267 0076739  86.1920 274.8004 14.38444389740383"}}, "geometry": {"type": "Point", "coordinates": [-149.53302965769592, -28.225467376772933]}}, {"type": "Feature", "properties": {"norad_id": 35718, "name": "COSMOS 2251 DEB", "group": "cosmos-2251-debris", "lat": -26.880274384635428, "lon": 123.46222259157318, "alt_km": 677.8680122614578, "timestamp": "2025-12-11T18:59:46.472078+00:00", "meta": {"OBJECT_NAME": "COSMOS 2251 DEB", "OBJECT_ID": "1993-036AQP", "EPOCH": "2025-12-09T16:26:31.942752", "MEAN_MOTION": 14.68563709, "ECCENTRICITY": 0.00112598, "INCLINATION": 74.0322, "RA_OF_ASC_NODE": 135.8815, "ARG_OF_PERICENTER": 184.534, "MEAN_ANOMALY": 175.573, "EPHEMERIS_TYPE": 0, "CLASSIFICATION_TYPE": "U", "NORAD_CAT_ID": 35718, "ELEMENT_SET_NO": 999, "REV_AT_EPOCH": 65795, "BSTAR": 0.0024435222, "MEAN_MOTION_DOT": 0.00014198, "MEAN_MOTION_DDOT": 0}, "tle": {"line1": "1 35718U 93036AQP 25343.68509193  .00014198  00000+0  24435-2 0  9995", "line2": "2 35718  74.0322 135.8815 0011259 184.5340 175.5730 14.68563709657957"}}, "geometry": {"type": "Point", "coordinates": [123.46222259157318, -26.880274384635428]}}, {"type": "Feature", "properties": {"norad_id": 35721, "name": "COSMOS 2251 DEB", "group": "cosmos-2251-debris", "lat": 63.67876652677909, "lon": -36.103752873905115, "alt_km": 856.101425251677, "timestamp": "2025-12-11T18:59:46.472088+00:00", "meta": {"OBJECT_NAME": "COSMOS 2251 DEB", "OBJECT_ID": "1993-036AQS", "EPOCH": "2025-12-09T19:36:39.465216", "MEAN_MOTION": 14.34317214, "ECCENTRICITY": 0.01465875, "INCLINATION": 73.9489, "RA_OF_ASC_NODE": 183.1196, "ARG_OF_PERICENTER": 330.1589, "MEAN_ANOMALY": 29.126, "EPHEMERIS_TYPE": 0, "CLASSIFICATION_TYPE": "U", "NORAD_CAT_ID": 35721, "ELEMENT_SET_NO": 999, "REV_AT_EPOCH": 57747, "BSTAR": 0.0018396061, "MEAN_MOTION_DOT": 5.808e-05, "MEAN_MOTION_DDOT": 0}, "tle": {"line1": "1 35721U 93036AQS 25343.81712344  .00005808  00000+0  18396-2 0  9995", "line2": "2 35721  73.9489 183.1196 0146587 330.1589  29.1260 14.34317214577479"}}, "geometry": {"type": "Point", "coordinates": [-36.103752873905115, 63.67876652677909]}}, {"type": "Feature", "properties": {"norad_id": 35724, "name": "COSMOS 2251 DEB", "group": "cosmos-2251-debris", "lat": -28.53907006127107, "lon": -64.47322753599728, "alt_km": 730.1512076352828, "timestamp": "2025-12-11T18:59:46.472098+00:00", "meta": {"OBJECT_NAME": "COSMOS 2251 DEB", "OBJECT_ID": "1993-036AQV", "EPOCH": "2025-12-10T15:08:30.643872", "MEAN_MOTION": 14.58189863, "ECCENTRICITY": 0.00589356, "INCLINATION": 74.0322, "RA_OF_ASC_NODE": 306.693, "ARG_OF_PERICENTER": 100.994, "MEAN_ANOMALY": 259.7862, "EPHEMERIS_TYPE": 0, "CLASSIFICATION_TYPE": "U", "NORAD_CAT_ID": 35724, "ELEMENT_SET_NO": 999, "REV_AT_EPOCH": 87498, "BSTAR": 0.00041915944, "MEAN_MOTION_DOT": 1.951e-05, "MEAN_MOTION_DDOT": 0}, "tle": {"line1": "1 35724U 93036AQV 25344.63091023  .00001951  00000+0  41916-3 0  9993", "line2": "2 35724  74.0322 306.6930 0058935 100.9940 259.7862 14.58189863874989"}}, "geometry": {"type": "Point", "coordinates": [-64.47322753599728, -28.53907006127107]}}]}